{
  "norad_id": 47935,
  "name": "GRUS-1E",
  "history": [
    {
      "epoch": "2026-03-28T22:24:15.663168Z",
      "apogee_km": 577.5603539302283,
      "perigee_km": 558.3403912485264,
      "latitude_deg": 5.099870820558182e-06,
      "longitude_deg": 172.41838619264527,
      "height_km": 575.6381427974942,
      "semi_major_axis_km": 6946.087372589377,
      "eccentricity": 0.00138351,
      "inclination_deg": 97.5502,
      "raan_deg": 334.8305,
      "arg_perigee_deg": 241.2624,
      "mean_anomaly_deg": 118.721,
      "mean_motion_rev_day": 14.99658589
    },
    {
      "epoch": "2026-03-29T04:48:35.337600Z",
      "apogee_km": 577.5709476096672,
      "perigee_km": 558.3261230255166,
      "latitude_deg": 4.38886800314255e-05,
      "longitude_deg": 76.3320412505476,
      "height_km": 575.776728366809,
      "semi_major_axis_km": 6946.085535317592,
      "eccentricity": 0.0013853,
      "inclination_deg": 97.5501,
      "raan_deg": 335.0892,
      "arg_perigee_deg": 240.3457,
      "mean_anomaly_deg": 119.6388,
      "mean_motion_rev_day": 14.99659184
    },
    {
      "epoch": "2026-03-30T04:49:48.953856Z",
      "apogee_km": 577.6373325835802,
      "perigee_km": 558.2355602330717,
      "latitude_deg": -9.783165295055097e-06,
      "longitude_deg": 76.00932977878627,
      "height_km": 576.3442033862958,
      "semi_major_axis_km": 6946.073446408325,
      "eccentricity": 0.0013966,
      "inclination_deg": 97.55,
      "raan_deg": 336.0597,
      "arg_perigee_deg": 236.5996,
      "mean_anomaly_deg": 123.3892,
      "mean_motion_rev_day": 14.99663099
    },
    {
      "epoch": "2026-03-30T06:25:53.879808Z",
      "apogee_km": 577.6511178583096,
      "perigee_km": 558.223226242053,
      "latitude_deg": -1.533467189984067e-06,
      "longitude_deg": 51.98763810843543,
      "height_km": 576.3951695842082,
      "semi_major_axis_km": 6946.074172050181,
      "eccentricity": 0.00139848,
      "inclination_deg": 97.55,
      "raan_deg": 336.1243,
      "arg_perigee_deg": 236.295,
      "mean_anomaly_deg": 123.6941,
      "mean_motion_rev_day": 14.99662864
    },
    {
      "epoch": "2026-03-30T14:26:18.364416Z",
      "apogee_km": 577.6825898365596,
      "perigee_km": 558.1842755249809,
      "latitude_deg": 7.046786177130236e-07,
      "longitude_deg": -68.11980864521297,
      "height_km": 576.5865999112939,
      "semi_major_axis_km": 6946.07043268077,
      "eccentricity": 0.00140355,
      "inclination_deg": 97.55,
      "raan_deg": 336.4477,
      "arg_perigee_deg": 235.0455,
      "mean_anomaly_deg": 124.9451,
      "mean_motion_rev_day": 14.99664075
    },
    {
      "epoch": "2026-03-30T22:26:42.764352Z",
      "apogee_km": 577.7224996754467,
      "perigee_km": 558.1226644315739,
      "latitude_deg": 3.022995104709554e-05,
      "longitude_deg": 171.77349477027266,
      "height_km": 576.7954053669592,
      "semi_major_axis_km": 6946.05958205351,
      "eccentricity": 0.00141086,
      "inclination_deg": 97.5498,
      "raan_deg": 336.7715,
      "arg_perigee_deg": 233.675,
      "mean_anomaly_deg": 126.3172,
      "mean_motion_rev_day": 14.99667589
    }
  ]
}